{"fetched_at":"2026-03-29T16:36:15Z","count":15609,"tles":[{"name":"STARLINK-31729","line1":"1 59610U 24080K   26087.87256784  .00000060  00000+0  11713-4 0  9997","line2":"2 59610  43.0035 286.3547 0001474 266.2761  93.7922 15.27581123107509","category":"Starlink"}]}